IRIDIUM 159             
1 43578U 18061K   25346.92428681  .00000466  00000+0  15945-3 0  9995
2 43578  86.3971 134.5894 0001986  89.4004 270.7419 14.34218123386686
IRIDIUM 180             
1 43922U 19002A   25346.99355197  .00000163  00000+0  51136-4 0  9999
2 43922  86.3966  71.4352 0001990  93.8742 266.2682 14.34218496362302
IRIDIUM 176             
1 43923U 19002B   25346.72357768  .00001769  00000+0  27672-3 0  9997
2 43923  86.6087  71.5187 0002272  94.9562 265.1915 14.72244073371818
IRIDIUM 168             
1 43924U 19002C   25346.98720594  .00000456  00000+0  15592-3 0  9997
2 43924  86.3967  71.5099 0002039  97.3582 262.7845 14.34220753362288
IRIDIUM 173             
1 43925U 19002D   25346.76521679  .00000403  00000+0  13675-3 0  9999
2 43925  86.3966  71.4989 0001900 102.2124 257.9284 14.34217547362234
IRIDIUM 169             
1 43926U 19002E   25346.84278077  .00000640  00000+0  20276-3 0  9998
2 43926  86.4221 103.1178 0001915 127.1508 232.9865 14.38605269363438
IRIDIUM 172             
1 43927U 19002F   25346.96818040  .00000239  00000+0  78399-4 0  9996
2 43927  86.3965  71.4216 0001972  92.6361 267.5060 14.34218859362272
IRIDIUM 175             
1 43928U 19002G   25346.78680809  .00001428  00000+0  22256-3 0  9998
2 43928  86.1505  13.8953 0003177  92.1615 267.9966 14.72247205371813
